GLOBALSTAR M075         
1 37192U 10054E   25262.30316822 -.00000087  00000+0  95126-4 0  9996
2 37192  51.9928 254.9754 0000303  82.7396 291.1012 12.62267795687739
GLOBALSTAR M073         
1 37193U 10054F   25262.17504881 -.00000099  00000+0  28087-4 0  9991
2 37193  52.0050 169.2564 0000682  83.9624  67.0323 12.62262611689708
GLOBALSTAR M083         
1 37739U 11033A   25262.03276942 -.00000081  00000+0  12488-3 0  9992
2 37739  51.9842 118.2913 0000934  83.3922  81.0144 12.62275751658700
GLOBALSTAR M088         
1 37740U 11033B   25261.67689975 -.00000111  00000+0 -38982-4 0  9990
2 37740  52.0238  25.1425 0000719  91.5466  14.4750 12.62267779654207
GLOBALSTAR M091         
1 37741U 11033C   25262.22639171 -.00000096  00000+0  40874-4 0  9990
2 37741  52.0021 346.8369 0000743  95.5689 290.0091 12.62259769655061
GLOBALSTAR M085         
1 37742U 11033D   25262.13635815 -.00000075  00000+0  15844-3 0  9997
2 37742  52.0124 298.1690 0000612  91.2128 304.4902 12.62264819655566
GLOBALSTAR M081         
1 37743U 11033E   25262.07980443 -.00000066  00000+0  20922-3 0  9994
2 37743  51.9962 301.0873 0000559 112.7386 265.0569 12.62268341655708
GLOBALSTAR M089         
1 37744U 11033F   25262.27712309 -.00000089  00000+0  83394-4 0  9999
2 37744  51.9916 254.6940 0000095 108.6485 267.0630 12.62266835656578
